ENVISAT                 
1 27386U 02009A   25324.31858103  .00000148  00000+0  61942-4 0  9990
2 27386  98.3564 275.6316 0001255  81.7561  38.4416 14.38987373243440
IDEFIX & ARIANE 42P R/B 
1 27422U 02021B   25324.27741271  .00000347  00000+0  14872-3 0  9997
2 27422  98.5753 259.2638 0012297 144.9840 215.2154 14.30926843228374
AQUA                    
1 27424U 02022A   25324.32521762  .00001213  00000+0  25330-3 0  9991
2 27424  98.4004 284.8452 0000628  70.2926  91.6390 14.61732332252752
CZ-4B R/B               
1 27432U 02024C   25324.15195909  .00000066  00000+0  57221-4 0  9993
2 27432  98.9033  12.9988 0049668 335.1477  85.8653 14.14521224213751
MIDORI II (ADEOS-II)    
1 27597U 02056A   25324.10243174  .00000315  00000+0  14186-3 0  9992
2 27597  98.7601 276.9442 0001004  24.6859 335.4371 14.29183580194647
H-2A R/B                
1 27601U 02056E   25324.12823101  .00000291  00000+0  11631-3 0  9999
2 27601  98.3030 283.7898 0071207 127.4760 243.5563 14.33651875198414
CZ-4B R/B               
1 28059U 03049C   25324.24408738  .00000444  00000+0  11358-3 0  9994
2 28059  98.6770 309.9602 0047711 204.4991 155.3937 14.54879951170689
CZ-2C R/B               
1 28222U 04012C   25324.14440298  .00032352  00000+0  50602-3 0  9991
2 28222  97.7460  14.9335 0018303 357.3042   2.8108 15.53517548187217
SL-16 R/B               
1 28353U 04021B   25324.13466484  .00000289  00000+0  17502-3 0  9996
2 28353  70.9997 102.4001 0006309 223.8545 136.2078 14.14578560107342
CZ-4B R/B               
1 28415U 04035C   25324.08617189  .00008099  00000+0  30458-3 0  9996
2 28415  97.3635 354.7384 0033658   0.3215 359.8039 15.26871451163170
CZ-2C R/B               
1 28480U 04046B   25324.23987613  .00000187  00000+0  84188-4 0  9999
2 28480  98.1967 241.0189 0140582 118.2973 243.2476 14.26926288 92894
ARIANE 5 R/B            
1 28499U 04049H   25324.21446653  .00000948  00000+0  11162-3 0  9990
2 28499  98.2519 123.6908 0084382 346.7154  13.1837 14.84942937129547
