CCSDS_OMM_VERS = 2.0
CREATION_DATE  = 
ORIGINATOR     = 

OBJECT_NAME    = ENVISAT
OBJECT_ID      = 2002-009A
CENTER_NAME    = EARTH
REF_FRAME      = TEME
TIME_SYSTEM    = UTC
MEAN_ELEMENT_THEORY = SGP/SGP4

EPOCH          = 2025-11-20T07:38:45.400992
MEAN_MOTION    = 14.38987373
ECCENTRICITY   = .00012551
INCLINATION    = 98.3564
RA_OF_ASC_NODE = 275.6316
ARG_OF_PERICENTER = 81.7561
MEAN_ANOMALY   = 38.4416

EPHEMERIS_TYPE = 0
CLASSIFICATION_TYPE = U
NORAD_CAT_ID   = 27386
ELEMENT_SET_NO = 999
REV_AT_EPOCH   = 24344
BSTAR          = .61941877E-4
MEAN_MOTION_DOT = .148E-5
MEAN_MOTION_DDOT = 0

CCSDS_OMM_VERS = 2.0
CREATION_DATE  = 
ORIGINATOR     = 

OBJECT_NAME    = IDEFIX & ARIANE 42P R/B
OBJECT_ID      = 2002-021B
CENTER_NAME    = EARTH
REF_FRAME      = TEME
TIME_SYSTEM    = UTC
MEAN_ELEMENT_THEORY = SGP/SGP4

EPOCH          = 2025-11-20T06:39:28.458144
MEAN_MOTION    = 14.30926843
ECCENTRICITY   = .00122976
INCLINATION    = 98.5753
RA_OF_ASC_NODE = 259.2638
ARG_OF_PERICENTER = 144.9840
MEAN_ANOMALY   = 215.2154

EPHEMERIS_TYPE = 0
CLASSIFICATION_TYPE = U
NORAD_CAT_ID   = 27422
ELEMENT_SET_NO = 999
REV_AT_EPOCH   = 22837
BSTAR          = .14872392E-3
MEAN_MOTION_DOT = .347E-5
MEAN_MOTION_DDOT = 0

CCSDS_OMM_VERS = 2.0
CREATION_DATE  = 
ORIGINATOR     = 

OBJECT_NAME    = AQUA
OBJECT_ID      = 2002-022A
CENTER_NAME    = EARTH
REF_FRAME      = TEME
TIME_SYSTEM    = UTC
MEAN_ELEMENT_THEORY = SGP/SGP4

EPOCH          = 2025-11-20T07:48:18.802368
MEAN_MOTION    = 14.61732332
ECCENTRICITY   = .00006287
INCLINATION    = 98.4004
RA_OF_ASC_NODE = 284.8452
ARG_OF_PERICENTER = 70.2926
MEAN_ANOMALY   = 91.6390

EPHEMERIS_TYPE = 0
CLASSIFICATION_TYPE = U
NORAD_CAT_ID   = 27424
ELEMENT_SET_NO = 999
REV_AT_EPOCH   = 25275
BSTAR          = .253297E-3
MEAN_MOTION_DOT = .1213E-4
MEAN_MOTION_DDOT = 0

CCSDS_OMM_VERS = 2.0
CREATION_DATE  = 
ORIGINATOR     = 

OBJECT_NAME    = CZ-4B R/B
OBJECT_ID      = 2002-024C
CENTER_NAME    = EARTH
REF_FRAME      = TEME
TIME_SYSTEM    = UTC
MEAN_ELEMENT_THEORY = SGP/SGP4

EPOCH          = 2025-11-20T03:38:49.265376
MEAN_MOTION    = 14.14521224
ECCENTRICITY   = .00496688
INCLINATION    = 98.9033
RA_OF_ASC_NODE = 12.9988
ARG_OF_PERICENTER = 335.1477
MEAN_ANOMALY   = 85.8653

EPHEMERIS_TYPE = 0
CLASSIFICATION_TYPE = U
NORAD_CAT_ID   = 27432
ELEMENT_SET_NO = 999
REV_AT_EPOCH   = 21375
BSTAR          = .57221302E-4
MEAN_MOTION_DOT = .66E-6
MEAN_MOTION_DDOT = 0

CCSDS_OMM_VERS = 2.0
CREATION_DATE  = 
ORIGINATOR     = 

OBJECT_NAME    = MIDORI II (ADEOS-II)
OBJECT_ID      = 2002-056A
CENTER_NAME    = EARTH
REF_FRAME      = TEME
TIME_SYSTEM    = UTC
MEAN_ELEMENT_THEORY = SGP/SGP4

EPOCH          = 2025-11-20T02:27:30.102336
MEAN_MOTION    = 14.29183580
ECCENTRICITY   = .00010045
INCLINATION    = 98.7601
RA_OF_ASC_NODE = 276.9442
ARG_OF_PERICENTER = 24.6859
MEAN_ANOMALY   = 335.4371

EPHEMERIS_TYPE = 0
CLASSIFICATION_TYPE = U
NORAD_CAT_ID   = 27597
ELEMENT_SET_NO = 999
REV_AT_EPOCH   = 19464
BSTAR          = .14186068E-3
MEAN_MOTION_DOT = .315E-5
MEAN_MOTION_DDOT = 0

CCSDS_OMM_VERS = 2.0
CREATION_DATE  = 
ORIGINATOR     = 

OBJECT_NAME    = H-2A R/B
OBJECT_ID      = 2002-056E
CENTER_NAME    = EARTH
REF_FRAME      = TEME
TIME_SYSTEM    = UTC
MEAN_ELEMENT_THEORY = SGP/SGP4

EPOCH          = 2025-11-20T03:04:39.159264
MEAN_MOTION    = 14.33651875
ECCENTRICITY   = .00712071
INCLINATION    = 98.3030
RA_OF_ASC_NODE = 283.7898
ARG_OF_PERICENTER = 127.4760
MEAN_ANOMALY   = 243.5563

EPHEMERIS_TYPE = 0
CLASSIFICATION_TYPE = U
NORAD_CAT_ID   = 27601
ELEMENT_SET_NO = 999
REV_AT_EPOCH   = 19841
BSTAR          = .11630689E-3
MEAN_MOTION_DOT = .291E-5
MEAN_MOTION_DDOT = 0

CCSDS_OMM_VERS = 2.0
CREATION_DATE  = 
ORIGINATOR     = 

OBJECT_NAME    = CZ-4B R/B
OBJECT_ID      = 2003-049C
CENTER_NAME    = EARTH
REF_FRAME      = TEME
TIME_SYSTEM    = UTC
MEAN_ELEMENT_THEORY = SGP/SGP4

EPOCH          = 2025-11-20T05:51:29.149632
MEAN_MOTION    = 14.54879951
ECCENTRICITY   = .00477119
INCLINATION    = 98.6770
RA_OF_ASC_NODE = 309.9602
ARG_OF_PERICENTER = 204.4991
MEAN_ANOMALY   = 155.3937

EPHEMERIS_TYPE = 0
CLASSIFICATION_TYPE = U
NORAD_CAT_ID   = 28059
ELEMENT_SET_NO = 999
REV_AT_EPOCH   = 17068
BSTAR          = .11357963E-3
MEAN_MOTION_DOT = .444E-5
MEAN_MOTION_DDOT = 0

CCSDS_OMM_VERS = 2.0
CREATION_DATE  = 
ORIGINATOR     = 

OBJECT_NAME    = CZ-2C R/B
OBJECT_ID      = 2004-012C
CENTER_NAME    = EARTH
REF_FRAME      = TEME
TIME_SYSTEM    = UTC
MEAN_ELEMENT_THEORY = SGP/SGP4

EPOCH          = 2025-11-20T03:27:56.417472
MEAN_MOTION    = 15.53517548
ECCENTRICITY   = .00183033
INCLINATION    = 97.7460
RA_OF_ASC_NODE = 14.9335
ARG_OF_PERICENTER = 357.3042
MEAN_ANOMALY   = 2.8108

EPHEMERIS_TYPE = 0
CLASSIFICATION_TYPE = U
NORAD_CAT_ID   = 28222
ELEMENT_SET_NO = 999
REV_AT_EPOCH   = 18721
BSTAR          = .50602483E-3
MEAN_MOTION_DOT = .32352E-3
MEAN_MOTION_DDOT = 0

CCSDS_OMM_VERS = 2.0
CREATION_DATE  = 
ORIGINATOR     = 

OBJECT_NAME    = SL-16 R/B
OBJECT_ID      = 2004-021B
CENTER_NAME    = EARTH
REF_FRAME      = TEME
TIME_SYSTEM    = UTC
MEAN_ELEMENT_THEORY = SGP/SGP4

EPOCH          = 2025-11-20T03:13:55.042176
MEAN_MOTION    = 14.14578560
ECCENTRICITY   = .00063095
INCLINATION    = 70.9997
RA_OF_ASC_NODE = 102.4001
ARG_OF_PERICENTER = 223.8545
MEAN_ANOMALY   = 136.2078

EPHEMERIS_TYPE = 0
CLASSIFICATION_TYPE = U
NORAD_CAT_ID   = 28353
ELEMENT_SET_NO = 999
REV_AT_EPOCH   = 10734
BSTAR          = .17501754E-3
MEAN_MOTION_DOT = .289E-5
MEAN_MOTION_DDOT = 0

CCSDS_OMM_VERS = 2.0
CREATION_DATE  = 
ORIGINATOR     = 

OBJECT_NAME    = CZ-4B R/B
OBJECT_ID      = 2004-035C
CENTER_NAME    = EARTH
REF_FRAME      = TEME
TIME_SYSTEM    = UTC
MEAN_ELEMENT_THEORY = SGP/SGP4

EPOCH          = 2025-11-20T02:04:05.251296
MEAN_MOTION    = 15.26871451
ECCENTRICITY   = .00336587
INCLINATION    = 97.3635
RA_OF_ASC_NODE = 354.7384
ARG_OF_PERICENTER = 0.3215
MEAN_ANOMALY   = 359.8039

EPHEMERIS_TYPE = 0
CLASSIFICATION_TYPE = U
NORAD_CAT_ID   = 28415
ELEMENT_SET_NO = 999
REV_AT_EPOCH   = 16317
BSTAR          = .30458455E-3
MEAN_MOTION_DOT = .8099E-4
MEAN_MOTION_DDOT = 0

CCSDS_OMM_VERS = 2.0
CREATION_DATE  = 
ORIGINATOR     = 

OBJECT_NAME    = CZ-2C R/B
OBJECT_ID      = 2004-046B
CENTER_NAME    = EARTH
REF_FRAME      = TEME
TIME_SYSTEM    = UTC
MEAN_ELEMENT_THEORY = SGP/SGP4

EPOCH          = 2025-11-20T05:45:25.297632
MEAN_MOTION    = 14.26926288
ECCENTRICITY   = .01405829
INCLINATION    = 98.1967
RA_OF_ASC_NODE = 241.0189
ARG_OF_PERICENTER = 118.2973
MEAN_ANOMALY   = 243.2476

EPHEMERIS_TYPE = 0
CLASSIFICATION_TYPE = U
NORAD_CAT_ID   = 28480
ELEMENT_SET_NO = 999
REV_AT_EPOCH   = 9289
BSTAR          = .84187558E-4
MEAN_MOTION_DOT = .187E-5
MEAN_MOTION_DDOT = 0

CCSDS_OMM_VERS = 2.0
CREATION_DATE  = 
ORIGINATOR     = 

OBJECT_NAME    = ARIANE 5 R/B
OBJECT_ID      = 2004-049H
CENTER_NAME    = EARTH
REF_FRAME      = TEME
TIME_SYSTEM    = UTC
MEAN_ELEMENT_THEORY = SGP/SGP4

EPOCH          = 2025-11-20T05:08:49.908192
MEAN_MOTION    = 14.84942937
ECCENTRICITY   = .00843823
INCLINATION    = 98.2519
RA_OF_ASC_NODE = 123.6908
ARG_OF_PERICENTER = 346.7154
MEAN_ANOMALY   = 13.1837

EPHEMERIS_TYPE = 0
CLASSIFICATION_TYPE = U
NORAD_CAT_ID   = 28499
ELEMENT_SET_NO = 999
REV_AT_EPOCH   = 12954
BSTAR          = .11162283E-3
MEAN_MOTION_DOT = .948E-5
MEAN_MOTION_DDOT = 0

